{"type": "FeatureCollection", "features": [ {"type": "Feature", "properties": {"norad_id": 32384, "name": "GPS BIIRM-5 (PRN 29)", "group": "gps-ops", "lat": 53.51082869969528, "lon": 32.00236108525627, "alt_km": 20133.136870835464, "timestamp": "2025-12-04T05:42:43.631929+00:00", "meta": {"OBJECT_NAME": "GPS BIIRM-5 (PRN 29)", "OBJECT_ID": "2007-062A", "EPOCH": "2025-12-02T20:24:02.738880", "MEAN_MOTION": 2.00576658, "ECCENTRICITY": 0.00322118, "INCLINATION": 55.191, "RA_OF_ASC_NODE": 282.0427, "ARG_OF_PERICENTER": 162.849, "MEAN_ANOMALY": 16.9412, "EPHEMERIS_TYPE": 0, "CLASSIFICATION_TYPE": "U", "NORAD_CAT_ID": 32384, "ELEMENT_SET_NO": 999, "REV_AT_EPOCH": 13157, "BSTAR": 0, "MEAN_MOTION_DOT": -4.3e-07, "MEAN_MOTION_DDOT": 0}, "tle": {"line1": "1 32384U 07062A   25336.85003170 -.00000043  00000+0  00000+0 0  9994", "line2": "2 32384  55.1910 282.0427 0032211 162.8490  16.9412  2.00576658131576"}}, "geometry": {"type": "Point", "coordinates": [32.00236108525627, 53.51082869969528]}}, {"type": "Feature", "properties": {"norad_id": 32711, "name": "GPS BIIRM-6 (PRN 07)", "group": "gps-ops", "lat": 22.537629814925484, "lon": 174.96245224698623, "alt_km": 20605.530352269096, "timestamp": "2025-12-04T05:42:43.631941+00:00", "meta": {"OBJECT_NAME": "GPS BIIRM-6 (PRN 07)", "OBJECT_ID": "2008-012A", "EPOCH": "2025-12-03T04:49:23.446848", "MEAN_MOTION": 2.00565082, "ECCENTRICITY": 0.02020764, "INCLINATION": 54.4757, "RA_OF_ASC_NODE": 157.7537, "ARG_OF_PERICENTER": 244.8436, "MEAN_ANOMALY": 113.0855, "EPHEMERIS_TYPE": 0, "CLASSIFICATION_TYPE": "U", "NORAD_CAT_ID": 32711, "ELEMENT_SET_NO": 999, "REV_AT_EPOCH": 12982, "BSTAR": 0, "MEAN_MOTION_DOT": 1.08e-06, "MEAN_MOTION_DDOT": 0}, "tle": {"line1": "1 32711U 08012A   25337.20096582  .00000108  00000+0  00000+0 0  9994", "line2": "2 32711  54.4757 157.7537 0202076 244.8436 113.0855  2.00565082129824"}}, "geometry": {"type": "Point", "coordinates": [174.96245224698623, 22.537629814925484]}}, {"type": "Feature", "properties": {"norad_id": 35752, "name": "GPS BIIRM-8 (PRN 05)", "group": "gps-ops", "lat": 36.928775263926134, "lon": 65.47928291773076, "alt_km": 20064.68869316664, "timestamp": "2025-12-04T05:42:43.631952+00:00", "meta": {"OBJECT_NAME": "GPS BIIRM-8 (PRN 05)", "OBJECT_ID": "2009-043A", "EPOCH": "2025-12-01T04:42:32.815296", "MEAN_MOTION": 2.00566259, "ECCENTRICITY": 0.00521242, "INCLINATION": 56.0822, "RA_OF_ASC_NODE": 35.2386, "ARG_OF_PERICENTER": 82.0997, "MEAN_ANOMALY": 288.3285, "EPHEMERIS_TYPE": 0, "CLASSIFICATION_TYPE": "U", "NORAD_CAT_ID": 35752, "ELEMENT_SET_NO": 999, "REV_AT_EPOCH": 11939, "BSTAR": 0, "MEAN_MOTION_DOT": -6.6e-07, "MEAN_MOTION_DDOT": 0}, "tle": {"line1": "1 35752U 09043A   25335.19621314 -.00000066  00000+0  00000+0 0  9994", "line2": "2 35752  56.0822  35.2386 0052124  82.0997 288.3285  2.00566259119397"}}, "geometry": {"type": "Point", "coordinates": [65.47928291773076, 36.928775263926134]}}, {"type": "Feature", "properties": {"norad_id": 36585, "name": "GPS BIIF-1  (PRN 25)", "group": "gps-ops", "lat": 10.642122888316162, "lon": 28.667486248252917, "alt_km": 20246.828607432042, "timestamp": "2025-12-04T05:42:43.631963+00:00", "meta": {"OBJECT_NAME": "GPS BIIF-1  (PRN 25)", "OBJECT_ID": "2010-022A", "EPOCH": "2025-12-03T06:19:07.093056", "MEAN_MOTION": 2.00552613, "ECCENTRICITY": 0.0125712, "INCLINATION": 54.3021, "RA_OF_ASC_NODE": 216.4561, "ARG_OF_PERICENTER": 64.9696, "MEAN_ANOMALY": 116.7502, "EPHEMERIS_TYPE": 0, "CLASSIFICATION_TYPE": "U", "NORAD_CAT_ID": 36585, "ELEMENT_SET_NO": 999, "REV_AT_EPOCH": 11366, "BSTAR": 0, "MEAN_MOTION_DOT": 7.1e-07, "MEAN_MOTION_DDOT": 0}, "tle": {"line1": "1 36585U 10022A   25337.26327654  .00000071  00000+0  00000+0 0  9993", "line2": "2 36585  54.3021 216.4561 0125712  64.9696 116.7502  2.00552613113660"}}, "geometry": {"type": "Point", "coordinates": [28.667486248252917, 10.642122888316162]}}, {"type": "Feature", "properties": {"norad_id": 38833, "name": "GPS BIIF-3  (PRN 24)", "group": "gps-ops", "lat": -52.76539133942051, "lon": 48.18948270711684, "alt_km": 20630.4259913436, "timestamp": "2025-12-04T05:42:43.631975+00:00", "meta": {"OBJECT_NAME": "GPS BIIF-3  (PRN 24)", "OBJECT_ID": "2012-053A", "EPOCH": "2025-12-01T21:10:58.228896", "MEAN_MOTION": 2.00564835, "ECCENTRICITY": 0.01754817, "INCLINATION": 53.5559, "RA_OF_ASC_NODE": 151.6834, "ARG_OF_PERICENTER": 63.8436, "MEAN_ANOMALY": 297.9871, "EPHEMERIS_TYPE": 0, "CLASSIFICATION_TYPE": "U", "NORAD_CAT_ID": 38833, "ELEMENT_SET_NO": 999, "REV_AT_EPOCH": 9548, "BSTAR": 0, "MEAN_MOTION_DOT": 1.16e-06, "MEAN_MOTION_DDOT": 0}, "tle": {"line1": "1 38833U 12053A   25335.88261839  .00000116  00000+0  00000+0 0  9995", "line2": "2 38833  53.5559 151.6834 0175481  63.8436 297.9871  2.00564835 95485"}}, "geometry": {"type": "Point", "coordinates": [48.18948270711684, -52.76539133942051]}}, {"type": "Feature", "properties": {"norad_id": 39166, "name": "GPS BIIF-4  (PRN 27)", "group": "gps-ops", "lat": -0.8136535217252265, "lon": -83.68460346467268, "alt_km": 19943.20588419789, "timestamp": "2025-12-04T05:42:43.631986+00:00", "meta": {"OBJECT_NAME": "GPS BIIF-4  (PRN 27)", "OBJECT_ID": "2013-023A", "EPOCH": "2025-12-02T17:50:49.750368", "MEAN_MOTION": 2.00565046, "ECCENTRICITY": 0.0137297, "INCLINATION": 54.6608, "RA_OF_ASC_NODE": 276.9746, "ARG_OF_PERICENTER": 48.5033, "MEAN_ANOMALY": 312.6627, "EPHEMERIS_TYPE": 0, "CLASSIFICATION_TYPE": "U", "NORAD_CAT_ID": 39166, "ELEMENT_SET_NO": 999, "REV_AT_EPOCH": 9194, "BSTAR": 0, "MEAN_MOTION_DOT": -3.8e-07, "MEAN_MOTION_DDOT": 0}, "tle": {"line1": "1 39166U 13023A   25336.74363137 -.00000038  00000+0  00000+0 0  9997", "line2": "2 39166  54.6608 276.9746 0137297  48.5033 312.6627  2.00565046 91947"}}, "geometry": {"type": "Point", "coordinates": [-83.68460346467268, -0.8136535217252265]}}, {"type": "Feature", "properties": {"norad_id": 39533, "name": "GPS BIIF-5  (PRN 30)", "group": "gps-ops", "lat": 2.3881753726826327, "lon": 159.0278821506234, "alt_km": 20332.68611132472, "timestamp": "2025-12-04T05:42:43.631997+00:00", "meta": {"OBJECT_NAME": "GPS BIIF-5  (PRN 30)", "OBJECT_ID": "2014-008A", "EPOCH": "2025-12-02T17:43:01.654176", "MEAN_MOTION": 2.00573776, "ECCENTRICITY": 0.00789617, "INCLINATION": 53.6297, "RA_OF_ASC_NODE": 157.3327, "ARG_OF_PERICENTER": 226.3697, "MEAN_ANOMALY": 133.0142, "EPHEMERIS_TYPE": 0, "CLASSIFICATION_TYPE": "U", "NORAD_CAT_ID": 39533, "ELEMENT_SET_NO": 999, "REV_AT_EPOCH": 8574, "BSTAR": 0, "MEAN_MOTION_DOT": 1.12e-06, "MEAN_MOTION_DDOT": 0}, "tle": {"line1": "1 39533U 14008A   25336.73821359  .00000112  00000+0  00000+0 0  9995", "line2": "2 39533  53.6297 157.3327 0078961 226.3697 133.0142  2.00573776 85746"}}, "geometry": {"type": "Point", "coordinates": [159.0278821506234, 2.3881753726826327]}}, {"type": "Feature", "properties": {"norad_id": 39741, "name": "GPS BIIF-6  (PRN 06)", "group": "gps-ops", "lat": 17.7705998675442, "lon": 146.89021970200295, "alt_km": 20277.07577245888, "timestamp": "2025-12-04T05:42:43.632009+00:00", "meta": {"OBJECT_NAME": "GPS BIIF-6  (PRN 06)", "OBJECT_ID": "2014-026A", "EPOCH": "2025-12-03T00:29:48.019488", "MEAN_MOTION": 2.00561842, "ECCENTRICITY": 0.00389204, "INCLINATION": 56.5873, "RA_OF_ASC_NODE": 339.1546, "ARG_OF_PERICENTER": 318.1696, "MEAN_ANOMALY": 41.56, "EPHEMERIS_TYPE": 0, "CLASSIFICATION_TYPE": "U", "NORAD_CAT_ID": 39741, "ELEMENT_SET_NO": 999, "REV_AT_EPOCH": 8460, "BSTAR": 0, "MEAN_MOTION_DOT": -6.2e-07, "MEAN_MOTION_DDOT": 0}, "tle": {"line1": "1 39741U 14026A   25337.02069467 -.00000062  00000+0  00000+0 0  9998", "line2": "2 39741  56.5873 339.1546 0038920 318.1696  41.5600  2.00561842 84609"}}, "geometry": {"type": "Point", "coordinates": [146.89021970200295, 17.7705998675442]}}, {"type": "Feature", "properties": {"norad_id": 40105, "name": "GPS BIIF-7  (PRN 09)", "group": "gps-ops", "lat": 54.841584369297216, "lon": -164.04202536370804, "alt_km": 20095.23731168728, "timestamp": "2025-12-04T05:42:43.632020+00:00", "meta": {"OBJECT_NAME": "GPS BIIF-7  (PRN 09)", "OBJECT_ID": "2014-045A", "EPOCH": "2025-12-02T02:40:49.418112", "MEAN_MOTION": 2.00571797, "ECCENTRICITY": 0.00329353, "INCLINATION": 55.2223, "RA_OF_ASC_NODE": 96.323, "ARG_OF_PERICENTER": 119.6015, "MEAN_ANOMALY": 240.7039, "EPHEMERIS_TYPE": 0, "CLASSIFICATION_TYPE": "U", "NORAD_CAT_ID": 40105, "ELEMENT_SET_NO": 999, "REV_AT_EPOCH": 8212, "BSTAR": 0, "MEAN_MOTION_DOT": 7e-08, "MEAN_MOTION_DDOT": 0}, "tle": {"line1": "1 40105U 14045A   25336.11168308  .00000007  00000+0  00000+0 0  9996", "line2": "2 40105  55.2223  96.3230 0032935 119.6015 240.7039  2.00571797 82125"}}, "geometry": {"type": "Point", "coordinates": [-164.04202536370804, 54.841584369297216]}}, {"type": "Feature", "properties": {"norad_id": 40294, "name": "GPS BIIF-8  (PRN 03)", "group": "gps-ops", "lat": -4.3448010205416265, "lon": -138.6640845688706, "alt_km": 20252.86583526817, "timestamp": "2025-12-04T05:42:43.632031+00:00", "meta": {"OBJECT_NAME": "GPS BIIF-8  (PRN 03)", "OBJECT_ID": "2014-068A", "EPOCH": "2025-12-03T11:38:05.638272", "MEAN_MOTION": 2.00564094, "ECCENTRICITY": 0.00608191, "INCLINATION": 56.851, "RA_OF_ASC_NODE": 38.5042, "ARG_OF_PERICENTER": 69.3788, "MEAN_ANOMALY": 291.3251, "EPHEMERIS_TYPE": 0, "CLASSIFICATION_TYPE": "U", "NORAD_CAT_ID": 40294, "ELEMENT_SET_NO": 999, "REV_AT_EPOCH": 8128, "BSTAR": 0, "MEAN_MOTION_DOT": -6.5e-07, "MEAN_MOTION_DDOT": 0}, "tle": {"line1": "1 40294U 14068A   25337.48478748 -.00000065  00000+0  00000+0 0  9998", "line2": "2 40294  56.8510  38.5042 0060819  69.3788 291.3251  2.00564094 81285"}}, "geometry": {"type": "Point", "coordinates": [-138.6640845688706, -4.3448010205416265]}}]}